#cP2012  1 16  0  0  0.00000000      96 d+D   IGS08 FIT AIUB
## 1671  86400.00000000   900.00000000 55942 0.0000000000000
+   55   G01G02G03G04G05G06G07G08G09G10G11G12G13G14G15G16G17
+        G18G19G20G21G22G23G25G26G27G28G29G30G31G32R01R02R03
+        R04R05R06R07R08R09R10R11R12R13R14R15R16R17R18R19R20
+        R21R22R23R24  0  0  0  0  0  0  0  0  0  0  0  0  0
+          0  0  0  0  0  0  0  0  0  0  0  0  0  0  0  0  0
++         4  4  6  4  4  6  4  4  4  4  4  4  5  5  5  4  4
++         4  4  4  4  4  5  4  6  4  4  4  4  4  4  4  5  4
++         5  5  4  5  4  4  4  5  4  4  5  4  4  5  4  5  5
++         4  5  4  5  0  0  0  0  0  0  0  0  0  0  0  0  0
++         0  0  0  0  0  0  0  0  0  0  0  0  0  0  0  0  0
%c M  cc GPS ccc cccc cccc cccc cccc ccccc ccccc ccccc ccccc
%c cc cc ccc ccc cccc cccc cccc cccc ccccc ccccc ccccc ccccc
%f  1.2500000  1.025000000  0.00000000000  0.000000000000000
%f  0.0000000  0.000000000  0.00000000000  0.000000000000000
%i    0    0    0    0      0      0      0      0         0
%i    0    0    0    0      0      0      0      0         0
/* Center for Orbit Determination in Europe (CODE)          
/* Final GNSS orbits and GPS clocks for year-day 12016      
/* Note: Middle day of a 3-day arc GPS/GLONASS solution     
/* PCV:IGS08      OL/AL:FES2004  NONE     YN ORB:CoN CLK:CoN
*  2012  1 16 21  0  0.00000000
PG01 -13698.374923  20945.360585   8856.707826    182.880622
PG02  15687.323838   2027.177678 -21203.492302    374.993379
PG03 -22160.373274  -7216.573741  12539.617086    822.939825
PG04  10635.600894  14093.695488 -19993.426612     65.449310
PG05  26184.375141  -1741.063605  -4535.192187   -271.379691
PG06 -21773.001644 -11395.102218  10547.844263     24.794689
PG07  -5710.118777  25352.117262   4838.270141     50.418691
PG08   1442.747364  21171.269297  15654.491507      0.408657
PG09  14436.867087 -18593.627200  11777.317829    132.261000
PG10  15370.182098  11221.790604 -18926.741150    -25.832623
PG11 -13513.044336  16578.850621  15179.437061   -223.491600
PG12  20878.097203 -11424.952633 -11588.972529     46.978533
PG13    848.616816  20432.414725 -17042.871841    230.346032
PG14 -15703.963368 -21509.001535    750.648630    190.291822
PG15  14542.397401  -6662.648984  21229.046078    -94.514297
PG16 -26207.359785    397.244963  -5188.046054   -219.131965
PG17  14665.569189  22054.271210   3473.954167    154.387682
PG18   1853.852605 -16336.515318  21155.005310    177.082833
PG19 -16288.276240   2406.300296  20879.249742   -226.261828
PG20 -18645.472961  14092.752525 -12711.376668     60.196704
PG21   1510.700217 -24709.076137   9219.626494   -198.060474
PG22 -14008.974149 -12156.087533  19222.892122    142.918232
PG23  -7936.351733  13625.766791 -21294.308620    241.335940
PG25  10494.677580 -15426.395606 -18911.918397     31.115894
PG26  19148.207071   8104.092690  16145.122797   -301.625070
PG27  16164.963445 -11160.497219  18298.207308    346.975263
PG28  10492.493416  12988.387217  21260.581677    103.398661
PG29   -143.481271 -19871.493161 -17575.757852    275.785413
PG30 -21775.730356  -4451.577038 -14899.438817    -11.483435
PG31 -10558.479972 -12008.667920 -20954.801091    196.410860
PG32 -24443.268740   7093.597316  -6464.527667   -393.647289
PR01  -1244.327210 -11007.778935  22973.570487 999999.999999
PR02 -19364.013985  -7454.394489  14821.491644 999999.999999
PR03 -25490.158245     78.166823   -954.014177 999999.999999
PR04 -17325.219229   7800.750849 -17004.707491 999999.999999
PR05   1159.384913  11019.142188 -22989.124601 999999.999999
PR06  18825.759750   7679.539671 -15407.952624 999999.999999
PR07  25490.033567    -91.006437   1003.795660 999999.999999
PR08  17141.381735  -8014.026639  17110.194442 999999.999999
PR09   5925.770060  10393.758319  22527.610198 999999.999999
PR10  14247.369546  -6262.417848  20226.778092 999999.999999
PR11  14892.310474 -19769.623735   5998.029650 999999.999999
PR12   6548.583560 -21510.650718 -12225.620424 999999.999999
PR13  -5842.676784 -10382.396965 -22566.311197 999999.999999
PR14 -14189.756292   6126.318330 -20277.275857 999999.999999
PR15 -14103.463737  21076.814269  -3204.905683 999999.999999
PR16  -6316.961860  21318.002057  12390.061773 999999.999999
PR17 -14128.176278  -5651.245433  20483.613084 999999.999999
PR18  -5417.632367  11628.576527  22048.649627 999999.999999
PR19   6211.219586  22206.210790  10910.146166 999999.999999
PR20  14482.923776  19667.244822  -7252.257231 999999.999999
PR21  14246.265265   6104.347591 -20296.966990 999999.999999
PR22   5543.340611 -11452.666188 -22132.955817 999999.999999
PR23  -6442.006595 -22147.405527 -10895.467176 999999.999999
PR24 -14519.787944 -19977.341428   6353.128731 999999.999999
*  2012  1 16 21 15  0.00000000
PG01 -13579.555930  19768.017808  11382.162426    182.891939
PG02  15029.418622   4402.835337 -21364.039785    374.994797
PG03 -23026.793294  -8301.547625  10197.351507    822.944083
PG04   9842.352114  16138.761050 -18773.095108     65.460249
PG05  25587.984755  -1338.716022  -7258.450707   -271.383664
PG06 -22335.191398 -12312.768172   8030.119987     24.796924
PG07  -6048.839652  25651.265343   1974.292832     50.421161
PG08    665.065786  22654.983680  13415.449543      0.408328
PG09  14151.350540 -17052.657530  14113.723298    132.262783
PG10  13252.992125  11758.518681 -20142.190543    -25.833573
PG11 -13753.780981  14638.052724  16857.481164   -223.494910
PG12  22077.242879 -11469.224713  -9028.085949     46.980689
PG13   -468.786422  18896.576710 -18764.058300    230.344066
PG14 -15414.478788 -21448.760762   3622.587500    190.293078
PG15  16154.795607  -4895.585968  20551.533785    -94.514011
PG16 -25505.570764     93.489842  -7931.753448   -219.133313
PG17  14146.908215  21795.660152   6247.673127    154.385397
PG18   4151.382594 -16729.302779  20467.848167    177.084348
PG19 -17656.499457    515.697931  19910.881118   -226.265141
PG20 -19981.481189  14155.730977 -10357.905478     60.198060
PG21   2109.684186 -25430.854971   6592.445704   -198.062801
PG22 -11846.925961 -12733.065854  20273.856562    142.918468
PG23  -9623.771949  11822.090470 -21703.928313    241.332738
PG25  12538.107673 -15771.357784 -17309.941417     31.116062
PG26  20158.990675   9610.192094  14064.562758   -301.638096
PG27  15733.271058  -9131.117379  19828.557142    346.979127
PG28   8183.960181  13431.461085  21984.966911    103.402237
PG29   1321.070024 -18347.889312 -19107.240570    275.788669
PG30 -20160.261472  -5170.205713 -16858.021635    -11.495138
PG31  -9734.868390 -14244.581403 -19917.527550    196.415039
PG32 -25093.874969   6868.975378  -3678.847104   -393.652587
PR01   1587.854385 -11055.689199  22931.381590 999999.999999
PR02 -17391.758107  -7401.571320  17117.278827 999999.999999
PR03 -25411.242928    230.772572   2259.714289 999999.999999
PR04 -19279.780765   7952.415081 -14671.880730 999999.999999
PR05  -1669.965883  11068.409123 -22932.901558 999999.999999
PR06  16788.638924   7619.402939 -17635.745393 999999.999999
PR07  25409.055973   -243.897017  -2210.429648 999999.999999
PR08  19108.563087  -8138.507459  14814.716734 999999.999999
PR09   4621.260847  12786.469918  21590.892759 999999.999999
PR10  12921.145408  -4039.826049  21627.359526 999999.999999
PR11  14288.409645 -19038.738511   9060.562917 999999.999999
PR12   7066.665350 -22741.538982  -9387.112638 999999.999999
PR13  -4583.909842 -12799.724603 -21594.956543 999999.999999
PR14 -12868.757757   3894.664527 -21669.640788 999999.999999
PR15 -13630.187464  20660.808988  -6371.180423 999999.999999
PR16  -6867.599372  22571.373706   9551.437468 999999.999999
PR17 -15439.716545  -7687.999231  18800.791896 999999.999999
PR18  -6803.115637   9236.515779  22793.549858 999999.999999
PR19   5566.307498  20827.871767  13634.977981 999999.999999
PR20  14972.000341  20196.931210  -4128.304868 999999.999999
PR21  15546.921200   8116.625304 -18571.549704 999999.999999
PR22   6934.784307  -9053.994030 -22828.517421 999999.999999
PR23  -5778.558945 -20782.523439 -13618.764368 999999.999999
PR24 -14956.471983 -20407.164725   3206.151843 999999.999999
EOF
